{
    "links": {
        "self": "http://www.neowsapp.com/rest/v1/neo/3610761?api_key=iIulBulltgU6a56xZRHN4H3l9WmuAYTsLGpBGhQ2"
    },
    "id": "3610761",
    "neo_reference_id": "3610761",
    "name": "(2012 TE146)",
    "designation": "2012 TE146",
    "nasa_jpl_url": "http://ssd.jpl.nasa.gov/sbdb.cgi?sstr=3610761",
    "absolute_magnitude_h": 24.8,
    "estimated_diameter": {
        "kilometers": {
            "estimated_diameter_min": 0.0291443905,
            "estimated_diameter_max": 0.0651688382
        },
        "meters": {
            "estimated_diameter_min": 29.1443904535,
            "estimated_diameter_max": 65.1688382168
        },
        "miles": {
            "estimated_diameter_min": 0.018109479,
            "estimated_diameter_max": 0.0404940262
        },
        "feet": {
            "estimated_diameter_min": 95.6180819754,
            "estimated_diameter_max": 213.8085311752
        }
    },
    "is_potentially_hazardous_asteroid": false,
    "close_approach_data": [
        {
            "close_approach_date": "2012-09-06",
            "close_approach_date_full": "2012-Sep-06 00:05",
            "epoch_date_close_approach": 1346889900000,
            "relative_velocity": {
                "kilometers_per_second": "4.8921013151",
                "kilometers_per_hour": "17611.5647344641",
                "miles_per_hour": "10943.1414318119"
            },
            "miss_distance": {
                "astronomical": "0.0650252633",
                "lunar": "25.2948274237",
                "kilometers": "9727640.885869171",
                "miles": "6044475.7604137198"
            },
            "orbiting_body": "Earth"
        },
        {
            "close_approach_date": "2099-10-07",
            "close_approach_date_full": "2099-Oct-07 19:41",
            "epoch_date_close_approach": 4095085260000,
            "relative_velocity": {
                "kilometers_per_second": "15.3681884885",
                "kilometers_per_hour": "55325.4785587372",
                "miles_per_hour": "34377.1008300109"
            },
            "miss_distance": {
                "astronomical": "0.3811748024",
                "lunar": "148.2769981336",
                "kilometers": "57022938.536710888",
                "miles": "35432410.9839827344"
            },
            "orbiting_body": "Earth"
        },
        {
            "close_approach_date": "2101-06-23",
            "close_approach_date_full": "2101-Jun-23 23:37",
            "epoch_date_close_approach": 4149013020000,
            "relative_velocity": {
                "kilometers_per_second": "18.4794972826",
                "kilometers_per_hour": "66526.1902174914",
                "miles_per_hour": "41336.7874715296"
            },
            "miss_distance": {
                "astronomical": "0.4963543704",
                "lunar": "193.0818500856",
                "kilometers": "74253556.577031048",
                "miles": "46139020.5621545424"
            },
            "orbiting_body": "Earth"
        },
        {
            "close_approach_date": "2101-12-13",
            "close_approach_date_full": "2101-Dec-13 16:37",
            "epoch_date_close_approach": 4163935020000,
            "relative_velocity": {
                "kilometers_per_second": "4.8379722034",
                "kilometers_per_hour": "17416.6999323724",
                "miles_per_hour": "10822.0600218678"
            },
            "miss_distance": {
                "astronomical": "0.0603174997",
                "lunar": "23.4635073833",
                "kilometers": "9023369.478845639",
                "miles": "5606861.8005182582"
            },
            "orbiting_body": "Mars"
        }
    ],
    "orbital_data": {
        "orbit_id": "7",
        "orbit_determination_date": "2017-04-06 08:48:36",
        "first_observation_date": "2012-10-11",
        "last_observation_date": "2012-10-15",
        "data_arc_in_days": 4,
        "observations_used": 19,
        "orbit_uncertainty": "9",
        "minimum_orbit_intersection": ".0622027",
        "jupiter_tisserand_invariant": "4.469",
        "epoch_osculation": "2456215.5",
        "eccentricity": ".3105661312119343",
        "semi_major_axis": "1.509196251005608",
        "inclination": "3.692210304653976",
        "ascending_node_longitude": "28.93026111006167",
        "orbital_period": "677.2000841748257",
        "perihelion_distance": "1.040491010091241",
        "perihelion_argument": "298.5265651425662",
        "aphelion_distance": "1.977901491919975",
        "perihelion_time": "2456162.075441535257",
        "mean_anomaly": "28.40052961709664",
        "mean_motion": ".5316006427238755",
        "equinox": "J2000",
        "orbit_class": {
            "orbit_class_type": "AMO",
            "orbit_class_description": "Near-Earth asteroid orbits similar to that of 1221 Amor",
            "orbit_class_range": "1.017 AU < q (perihelion) < 1.3 AU"
        }
    },
    "is_sentry_object": false
}